JILIN-1 GAOFEN 3A       
1 44312U 19032C   26068.74542089  .00016264  00000+0  55381-3 0  9993
2 44312  44.9746 183.2861 0002618 111.2900 248.8263 15.30271310372592
STARLINK-30518          
1 58029U 23156B   26068.33843173  .00007196  00000+0  25487-3 0  9996
2 58029  53.1604  79.9129 0001544 112.8694 247.2470 15.30196225136265
